O3B FM5                 
1 39188U 13031A   22244.43559935 -.00000014  00000+0  00000+0 0  9998
2 39188   0.0588  19.8655 0002580 143.8080 196.3370  5.00115266167857
O3B FM4                 
1 39189U 13031B   22243.89197184 -.00000014  00000+0  00000+0 0  9992
2 39189   0.0548 351.6084 0002542 171.1636 197.2387  5.00115765167746
O3B FM2                 
1 39190U 13031C   22243.78352760 -.00000014  00000+0  00000+0 0  9995
2 39190   0.0566 346.7159 0002577 175.1819 198.1135  5.00116822167792
O3B PFM                 
1 39191U 13031D   22244.20957018 -.00000014  00000+0  00000+0 0  9991
2 39191   0.0546  11.7669 0002645 148.8987 199.3466  5.00115664167833
O3B FM3                 
1 40079U 14038A   22243.66465993 -.00000014  00000+0  00000+0 0  9991
2 40079   0.0550 359.7205 0004986 150.9831 209.3264  5.00115347143737
O3B FM7                 
1 40080U 14038B   22243.81062197 -.00000014  00000+0  00000+0 0  9999
2 40080   0.0584 356.8287 0001384 206.9244 156.2426  5.00115444148848
O3B FM6                 
1 40081U 14038C   22243.83699761 -.00000014  00000+0  00000+0 0  9995
2 40081   0.0543 358.9200 0002686 162.1044 198.9876  5.00115359148510
O3B FM8                 
1 40082U 14038D   22243.89093379 -.00000014  00000+0  00000+0 0  9995
2 40082   0.0533 355.6536 0002659 162.1658 202.1941  5.00115649148633
O3B FM10                
1 40348U 14083A   22243.51719206 -.00000014  00000+0  00000+0 0  9993
2 40348   0.0506   7.9982 0002616 151.8821 200.1320  5.00115088140571
O3B FM11                
1 40349U 14083B   22243.53065490 -.00000014  00000+0  00000+0 0  9995
2 40349   0.0553   8.4069 0002376 166.8637 184.7337  5.00115390140740
O3B FM12                
1 40350U 14083C   22243.15807741 -.00000015  00000+0  00000+0 0  9999
2 40350   0.0548   7.5937 0002717 155.4960 196.9213  5.00115259140586
O3B FM9                 
1 40351U 14083D   22243.78467125 -.00000014  00000+0  00000+0 0  9996
2 40351   0.0564   8.8099 0002586 152.9095 198.2921  5.00115902140758
DIAMOND RED             
1 42783U 17036U   22243.82770234  .00005277  00000+0  19265-3 0  9993
2 42783  97.1937 282.0600 0011865  67.6274 292.6222 15.28472950288458
DIAMOND GREEN           
1 42785U 17036W   22244.08998458  .00005570  00000+0  20340-3 0  9996
2 42785  97.1940 282.3765 0011694  68.3902 291.8583 15.28446534288488
DIAMOND BLUE            
1 42786U 17036X   22244.15446537  .00005842  00000+0  21317-3 0  9998
2 42786  97.1940 282.4309 0011762  68.6486 291.6008 15.28447428288494
LEO VANTAGE 1           
1 43113U 18004C   22244.53089848  .00000985  00000+0  86436-4 0  9996
2 43113  99.2447 332.6787 0400244 322.8849  34.5269 14.54065940235293
O3B FM15                
1 43231U 18024A   22243.65071469 -.00000014  00000+0  00000+0 0  9993
2 43231   0.0472   8.2183 0002896 154.3517 197.4420  5.00115978 81711
O3B FM16                
1 43232U 18024B   22243.70409889 -.00000014  00000+0  00000+0 0  9991
2 43232   0.0432   9.6533 0002875 153.5989 196.7593  5.00115865 81621
O3B FM14                
1 43233U 18024C   22243.34393499 -.00000015  00000+0  00000+0 0  9992
2 43233   0.0416   9.3769 0002697 155.4892 195.1439  5.00115268 81852
O3B FM13                
1 43234U 18024D   22242.39798460 -.00000015  00000+0  00000+0 0  9994
2 43234   0.0527  32.6406 0003614 136.8276 190.5409  5.00115028 81683
O3B FM20                
1 44112U 19020A   22243.77043225 -.00000014  00000+0  00000+0 0  9991
2 44112   0.0504   7.1866 0002986 162.6515 190.1700  5.00115432 62256
O3B FM19                
1 44113U 19020B   22242.39798052 -.00000015  00000+0  00000+0 0  9995
2 44113   0.0658  25.1856 0001825 147.3244 187.4942  5.00115358 62058
O3B FM17                
1 44114U 19020C   22243.47796407 -.00000014  00000+0  00000+0 0  9997
2 44114   0.0396 345.8306 0003010 177.3867 196.7946  5.00115556 62206
O3B FM18                
1 44115U 19020D   22243.22459921 -.00000015  00000+0  00000+0 0  9999
2 44115   0.0507   7.6685 0002874 151.8401 200.5048  5.00115735 62310
SALSAT                  
1 46495U 20068K   22243.44415963  .00001652  00000+0  12135-3 0  9991
2 46495  97.7330 184.7924 0017167  28.8495 331.3677 15.04764632105466
